ONEWEB-0326             
1 49195U 21083K   25337.16506070  .00000050  00000+0  93202-4 0  9991
2 49195  87.9190  14.3869 0001744 108.0755 252.0567 13.18685127204169
ONEWEB-0327             
1 49196U 21083L   25337.16477966  .00000030  00000+0  44235-4 0  9993
2 49196  87.9181  14.4071 0001869 109.6929 250.4405 13.18685001204180
ONEWEB-0328             
1 49197U 21083M   25337.14029888  .00000298  00000+0  78214-3 0  9997
2 49197  87.8991 359.1680 0001633  91.0373 269.0943 13.13470160205165
ONEWEB-0331             
1 49198U 21083N   25337.15831703  .00000082  00000+0  17414-3 0  9992
2 49198  87.9188  14.3812 0001495 105.1502 254.9796 13.18684844204179
ONEWEB-0333             
1 49199U 21083P   25337.13522291  .00000355  00000+0  93610-3 0  9995
2 49199  87.8973 359.2236 0001816  94.6452 265.4885 13.13470462205176
ONEWEB-0334             
1 49200U 21083Q   25337.31123428 -.00000019  00000+0 -77976-4 0  9994
2 49200  87.9186 313.5251 0002764  78.2991 281.8453 13.20770433210937
ONEWEB-0335             
1 49201U 21083R   25337.35867423  .00000398  00000+0  10542-2 0  9991
2 49201  87.8974 359.1675 0001626  98.6558 261.4755 13.13471430205210
ONEWEB-0336             
1 49202U 21083S   25337.32988808 -.00000288  00000+0 -82301-3 0  9993
2 49202  87.8981 359.1691 0001409 102.5462 257.5825 13.13470487205209
ONEWEB-0337             
1 49203U 21083T   25337.33990743 -.00000087  00000+0 -27420-3 0  9994
2 49203  87.8980 359.1782 0001552  91.6696 268.4611 13.13471220205206
ONEWEB-0338             
1 49204U 21083U   25337.21023403  .00000040  00000+0  66693-4 0  9995
2 49204  87.9189 313.5475 0002078  81.4143 278.7226 13.20771755210947
ONEWEB-0339             
1 49205U 21083V   25337.34851556  .00000165  00000+0  41577-3 0  9999
2 49205  87.8982 359.1587 0001755  88.0963 272.0368 13.13471372205180
ONEWEB-0340             
1 49206U 21083W   25337.37276279  .00000028  00000+0  39237-4 0  9995
2 49206  87.9190  14.3432 0001742  98.1827 261.9503 13.18684969204167
ONEWEB-0341             
1 49207U 21083X   25337.15172795  .00000048  00000+0  88187-4 0  9990
2 49207  87.9189  14.3987 0001379  82.8169 277.3120 13.18685220204152
ONEWEB-0342             
1 49208U 21083Y   25337.21653163  .00000048  00000+0  87222-4 0  9990
2 49208  87.9196 313.5168 0001933  81.8384 278.2968 13.20769993210914
ONEWEB-0343             
1 49209U 21083Z   25337.15996713  .00000037  00000+0  60219-4 0  9990
2 49209  87.9191  14.3894 0001718  77.6416 282.4908 13.18684172204200
ONEWEB-0344             
1 49210U 21083AA  25337.34343586 -.00000007  00000+0 -53691-4 0  9992
2 49210  87.8973 359.1923 0001389  85.7584 274.3704 13.13470804205184
ONEWEB-0345             
1 49211U 21083AB  25337.33497052 -.00000140  00000+0 -41851-3 0  9992
2 49211  87.8983 359.1530 0001474  84.0909 276.0388 13.13471341205193
