[{"OBJECT_NAME":"ONEWEB-0326","OBJECT_ID":"2021-083K","EPOCH":"2025-12-03T03:57:41.244480","MEAN_MOTION":13.18685127,"ECCENTRICITY":0.00017442,"INCLINATION":87.919,"RA_OF_ASC_NODE":14.3869,"ARG_OF_PERICENTER":108.0755,"MEAN_ANOMALY":252.0567,"EPHEMERIS_TYPE":0,"CLASSIFICATION_TYPE":"U","NORAD_CAT_ID":49195,"ELEMENT_SET_NO":999,"REV_AT_EPOCH":20416,"BSTAR":9.3202467e-5,"MEAN_MOTION_DOT":5.0e-7,"MEAN_MOTION_DDOT":0},{"OBJECT_NAME":"ONEWEB-0327","OBJECT_ID":"2021-083L","EPOCH":"2025-12-03T03:57:16.962624","MEAN_MOTION":13.18685001,"ECCENTRICITY":0.00018692,"INCLINATION":87.9181,"RA_OF_ASC_NODE":14.4071,"ARG_OF_PERICENTER":109.6929,"MEAN_ANOMALY":250.4405,"EPHEMERIS_TYPE":0,"CLASSIFICATION_TYPE":"U","NORAD_CAT_ID":49196,"ELEMENT_SET_NO":999,"REV_AT_EPOCH":20418,"BSTAR":4.4234708e-5,"MEAN_MOTION_DOT":3.0e-7,"MEAN_MOTION_DDOT":0},{"OBJECT_NAME":"ONEWEB-0328","OBJECT_ID":"2021-083M","EPOCH":"2025-12-03T03:22:01.823232","MEAN_MOTION":13.1347016,"ECCENTRICITY":0.00016337,"INCLINATION":87.8991,"RA_OF_ASC_NODE":359.168,"ARG_OF_PERICENTER":91.0373,"MEAN_ANOMALY":269.0943,"EPHEMERIS_TYPE":0,"CLASSIFICATION_TYPE":"U","NORAD_CAT_ID":49197,"ELEMENT_SET_NO":999,"REV_AT_EPOCH":20516,"BSTAR":0.00078214222,"MEAN_MOTION_DOT":2.98e-6,"MEAN_MOTION_DDOT":0},{"OBJECT_NAME":"ONEWEB-0331","OBJECT_ID":"2021-083N","EPOCH":"2025-12-03T03:47:58.591392","MEAN_MOTION":13.18684844,"ECCENTRICITY":0.00014959,"INCLINATION":87.9188,"RA_OF_ASC_NODE":14.3812,"ARG_OF_PERICENTER":105.1502,"MEAN_ANOMALY":254.9796,"EPHEMERIS_TYPE":0,"CLASSIFICATION_TYPE":"U","NORAD_CAT_ID":49198,"ELEMENT_SET_NO":999,"REV_AT_EPOCH":20417,"BSTAR":0.00017413757,"MEAN_MOTION_DOT":8.2e-7,"MEAN_MOTION_DDOT":0},{"OBJECT_NAME":"ONEWEB-0333","OBJECT_ID":"2021-083P","EPOCH":"2025-12-03T03:14:43.259424","MEAN_MOTION":13.13470462,"ECCENTRICITY":0.00018164,"INCLINATION":87.8973,"RA_OF_ASC_NODE":359.2236,"ARG_OF_PERICENTER":94.6452,"MEAN_ANOMALY":265.4885,"EPHEMERIS_TYPE":0,"CLASSIFICATION_TYPE":"U","NORAD_CAT_ID":49199,"ELEMENT_SET_NO":999,"REV_AT_EPOCH":20517,"BSTAR":0.00093610338,"MEAN_MOTION_DOT":3.55e-6,"MEAN_MOTION_DDOT":0},{"OBJECT_NAME":"ONEWEB-0334","OBJECT_ID":"2021-083Q","EPOCH":"2025-12-03T07:28:10.641792","MEAN_MOTION":13.20770433,"ECCENTRICITY":0.00027647,"INCLINATION":87.9186,"RA_OF_ASC_NODE":313.5251,"ARG_OF_PERICENTER":78.2991,"MEAN_ANOMALY":281.8453,"EPHEMERIS_TYPE":0,"CLASSIFICATION_TYPE":"U","NORAD_CAT_ID":49200,"ELEMENT_SET_NO":999,"REV_AT_EPOCH":21093,"BSTAR":-7.7975993e-5,"MEAN_MOTION_DOT":-1.9e-7,"MEAN_MOTION_DDOT":0},{"OBJECT_NAME":"ONEWEB-0335","OBJECT_ID":"2021-083R","EPOCH":"2025-12-03T08:36:29.453472","MEAN_MOTION":13.1347143,"ECCENTRICITY":0.00016265,"INCLINATION":87.8974,"RA_OF_ASC_NODE":359.1675,"ARG_OF_PERICENTER":98.6558,"MEAN_ANOMALY":261.4755,"EPHEMERIS_TYPE":0,"CLASSIFICATION_TYPE":"U","NORAD_CAT_ID":49201,"ELEMENT_SET_NO":999,"REV_AT_EPOCH":20521,"BSTAR":0.0010542221,"MEAN_MOTION_DOT":3.98e-6,"MEAN_MOTION_DDOT":0},{"OBJECT_NAME":"ONEWEB-0336","OBJECT_ID":"2021-083S","EPOCH":"2025-12-03T07:55:02.330112","MEAN_MOTION":13.13470487,"ECCENTRICITY":0.0001409,"INCLINATION":87.8981,"RA_OF_ASC_NODE":359.1691,"ARG_OF_PERICENTER":102.5462,"MEAN_ANOMALY":257.5825,"EPHEMERIS_TYPE":0,"CLASSIFICATION_TYPE":"U","NORAD_CAT_ID":49202,"ELEMENT_SET_NO":999,"REV_AT_EPOCH":20520,"BSTAR":-0.00082301144,"MEAN_MOTION_DOT":-2.88e-6,"MEAN_MOTION_DDOT":0},{"OBJECT_NAME":"ONEWEB-0337","OBJECT_ID":"2021-083T","EPOCH":"2025-12-03T08:09:28.001952","MEAN_MOTION":13.1347122,"ECCENTRICITY":0.00015525,"INCLINATION":87.898,"RA_OF_ASC_NODE":359.1782,"ARG_OF_PERICENTER":91.6696,"MEAN_ANOMALY":268.4611,"EPHEMERIS_TYPE":0,"CLASSIFICATION_TYPE":"U","NORAD_CAT_ID":49203,"ELEMENT_SET_NO":999,"REV_AT_EPOCH":20520,"BSTAR":-0.00027419686,"MEAN_MOTION_DOT":-8.7e-7,"MEAN_MOTION_DDOT":0},{"OBJECT_NAME":"ONEWEB-0338","OBJECT_ID":"2021-083U","EPOCH":"2025-12-03T05:02:44.220192","MEAN_MOTION":13.20771755,"ECCENTRICITY":0.00020786,"INCLINATION":87.9189,"RA_OF_ASC_NODE":313.5475,"ARG_OF_PERICENTER":81.4143,"MEAN_ANOMALY":278.7226,"EPHEMERIS_TYPE":0,"CLASSIFICATION_TYPE":"U","NORAD_CAT_ID":49204,"ELEMENT_SET_NO":999,"REV_AT_EPOCH":21094,"BSTAR":6.6693003e-5,"MEAN_MOTION_DOT":4.0e-7,"MEAN_MOTION_DDOT":0},{"OBJECT_NAME":"ONEWEB-0339","OBJECT_ID":"2021-083V","EPOCH":"2025-12-03T08:21:51.744384","MEAN_MOTION":13.13471372,"ECCENTRICITY":0.00017551,"INCLINATION":87.8982,"RA_OF_ASC_NODE":359.1587,"ARG_OF_PERICENTER":88.0963,"MEAN_ANOMALY":272.0368,"EPHEMERIS_TYPE":0,"CLASSIFICATION_TYPE":"U","NORAD_CAT_ID":49205,"ELEMENT_SET_NO":999,"REV_AT_EPOCH":20518,"BSTAR":0.00041576965,"MEAN_MOTION_DOT":1.65e-6,"MEAN_MOTION_DDOT":0},{"OBJECT_NAME":"ONEWEB-0340","OBJECT_ID":"2021-083W","EPOCH":"2025-12-03T08:56:46.705056","MEAN_MOTION":13.18684969,"ECCENTRICITY":0.00017423,"INCLINATION":87.919,"RA_OF_ASC_NODE":14.3432,"ARG_OF_PERICENTER":98.1827,"MEAN_ANOMALY":261.9503,"EPHEMERIS_TYPE":0,"CLASSIFICATION_TYPE":"U","NORAD_CAT_ID":49206,"ELEMENT_SET_NO":999,"REV_AT_EPOCH":20416,"BSTAR":3.9236779e-5,"MEAN_MOTION_DOT":2.8e-7,"MEAN_MOTION_DDOT":0},{"OBJECT_NAME":"ONEWEB-0341","OBJECT_ID":"2021-083X","EPOCH":"2025-12-03T03:38:29.294880","MEAN_MOTION":13.1868522,"ECCENTRICITY":0.00013793,"INCLINATION":87.9189,"RA_OF_ASC_NODE":14.3987,"ARG_OF_PERICENTER":82.8169,"MEAN_ANOMALY":277.312,"EPHEMERIS_TYPE":0,"CLASSIFICATION_TYPE":"U","NORAD_CAT_ID":49207,"ELEMENT_SET_NO":999,"REV_AT_EPOCH":20415,"BSTAR":8.8186632e-5,"MEAN_MOTION_DOT":4.8e-7,"MEAN_MOTION_DDOT":0},{"OBJECT_NAME":"ONEWEB-0342","OBJECT_ID":"2021-083Y","EPOCH":"2025-12-03T05:11:48.332832","MEAN_MOTION":13.20769993,"ECCENTRICITY":0.00019333,"INCLINATION":87.9196,"RA_OF_ASC_NODE":313.5168,"ARG_OF_PERICENTER":81.8384,"MEAN_ANOMALY":278.2968,"EPHEMERIS_TYPE":0,"CLASSIFICATION_TYPE":"U","NORAD_CAT_ID":49208,"ELEMENT_SET_NO":999,"REV_AT_EPOCH":21091,"BSTAR":8.7221658e-5,"MEAN_MOTION_DOT":4.8e-7,"MEAN_MOTION_DDOT":0},{"OBJECT_NAME":"ONEWEB-0343","OBJECT_ID":"2021-083Z","EPOCH":"2025-12-03T03:50:21.160032","MEAN_MOTION":13.18684172,"ECCENTRICITY":0.00017183,"INCLINATION":87.9191,"RA_OF_ASC_NODE":14.3894,"ARG_OF_PERICENTER":77.6416,"MEAN_ANOMALY":282.4908,"EPHEMERIS_TYPE":0,"CLASSIFICATION_TYPE":"U","NORAD_CAT_ID":49209,"ELEMENT_SET_NO":999,"REV_AT_EPOCH":20420,"BSTAR":6.0219128e-5,"MEAN_MOTION_DOT":3.7e-7,"MEAN_MOTION_DDOT":0},{"OBJECT_NAME":"ONEWEB-0344","OBJECT_ID":"2021-083AA","EPOCH":"2025-12-03T08:14:32.858304","MEAN_MOTION":13.13470804,"ECCENTRICITY":0.00013892,"INCLINATION":87.8973,"RA_OF_ASC_NODE":359.1923,"ARG_OF_PERICENTER":85.7584,"MEAN_ANOMALY":274.3704,"EPHEMERIS_TYPE":0,"CLASSIFICATION_TYPE":"U","NORAD_CAT_ID":49210,"ELEMENT_SET_NO":999,"REV_AT_EPOCH":20518,"BSTAR":-5.369141e-5,"MEAN_MOTION_DOT":-7.0e-8,"MEAN_MOTION_DDOT":0},{"OBJECT_NAME":"ONEWEB-0345","OBJECT_ID":"2021-083AB","EPOCH":"2025-12-03T08:02:21.452928","MEAN_MOTION":13.13471341,"ECCENTRICITY":0.00014742,"INCLINATION":87.8983,"RA_OF_ASC_NODE":359.153,"ARG_OF_PERICENTER":84.0909,"MEAN_ANOMALY":276.0388,"EPHEMERIS_TYPE":0,"CLASSIFICATION_TYPE":"U","NORAD_CAT_ID":49211,"ELEMENT_SET_NO":999,"REV_AT_EPOCH":20519,"BSTAR":-0.00041851425,"MEAN_MOTION_DOT":-1.4e-6,"MEAN_MOTION_DDOT":0}]
